CCSDS_OMM_VERS = 2.0
CREATION_DATE  = 
ORIGINATOR     = 

OBJECT_NAME    = CZ-2D R/B
OBJECT_ID      = 2005-024B
CENTER_NAME    = EARTH
REF_FRAME      = TEME
TIME_SYSTEM    = UTC
MEAN_ELEMENT_THEORY = SGP/SGP4

EPOCH          = 2025-11-26T00:41:51.465696
MEAN_MOTION    = 15.52062309
ECCENTRICITY   = .00077881
INCLINATION    = 97.3645
RA_OF_ASC_NODE = 337.0528
ARG_OF_PERICENTER = 55.2390
MEAN_ANOMALY   = 304.9595

EPHEMERIS_TYPE = 0
CLASSIFICATION_TYPE = U
NORAD_CAT_ID   = 28738
ELEMENT_SET_NO = 999
REV_AT_EPOCH   = 12366
BSTAR          = .53127067E-3
MEAN_MOTION_DOT = .32054E-3
MEAN_MOTION_DDOT = 0

CCSDS_OMM_VERS = 2.0
CREATION_DATE  = 
ORIGINATOR     = 

OBJECT_NAME    = ALOS (DAICHI)
OBJECT_ID      = 2006-002A
CENTER_NAME    = EARTH
REF_FRAME      = TEME
TIME_SYSTEM    = UTC
MEAN_ELEMENT_THEORY = SGP/SGP4

EPOCH          = 2025-11-26T03:34:05.185632
MEAN_MOTION    = 14.69410348
ECCENTRICITY   = .000071
INCLINATION    = 98.1071
RA_OF_ASC_NODE = 281.7561
ARG_OF_PERICENTER = 83.3105
MEAN_ANOMALY   = 276.8181

EPHEMERIS_TYPE = 0
CLASSIFICATION_TYPE = U
NORAD_CAT_ID   = 28931
ELEMENT_SET_NO = 999
REV_AT_EPOCH   = 5827
BSTAR          = .33747E-3
MEAN_MOTION_DOT = .1948E-4
MEAN_MOTION_DDOT = 0

CCSDS_OMM_VERS = 2.0
CREATION_DATE  = 
ORIGINATOR     = 

OBJECT_NAME    = H-2A R/B
OBJECT_ID      = 2006-002B
CENTER_NAME    = EARTH
REF_FRAME      = TEME
TIME_SYSTEM    = UTC
MEAN_ELEMENT_THEORY = SGP/SGP4

EPOCH          = 2025-11-26T03:12:29.602944
MEAN_MOTION    = 15.14077735
ECCENTRICITY   = .005447
INCLINATION    = 98.2309
RA_OF_ASC_NODE = 103.5334
ARG_OF_PERICENTER = 232.9300
MEAN_ANOMALY   = 126.6942

EPHEMERIS_TYPE = 0
CLASSIFICATION_TYPE = U
NORAD_CAT_ID   = 28932
ELEMENT_SET_NO = 999
REV_AT_EPOCH   = 7875
BSTAR          = .61213E-3
MEAN_MOTION_DOT = .11484E-3
MEAN_MOTION_DDOT = 0

CCSDS_OMM_VERS = 2.0
CREATION_DATE  = 
ORIGINATOR     = 

OBJECT_NAME    = RESURS-DK 1
OBJECT_ID      = 2006-021A
CENTER_NAME    = EARTH
REF_FRAME      = TEME
TIME_SYSTEM    = UTC
MEAN_ELEMENT_THEORY = SGP/SGP4

EPOCH          = 2025-11-25T23:04:28.799616
MEAN_MOTION    = 15.12015762
ECCENTRICITY   = .00074922
INCLINATION    = 69.9316
RA_OF_ASC_NODE = 145.1923
ARG_OF_PERICENTER = 271.1996
MEAN_ANOMALY   = 88.8311

EPHEMERIS_TYPE = 0
CLASSIFICATION_TYPE = U
NORAD_CAT_ID   = 29228
ELEMENT_SET_NO = 999
REV_AT_EPOCH   = 7184
BSTAR          = .22879862E-3
MEAN_MOTION_DOT = .3835E-4
MEAN_MOTION_DDOT = 0

CCSDS_OMM_VERS = 2.0
CREATION_DATE  = 
ORIGINATOR     = 

OBJECT_NAME    = CZ-4B R/B
OBJECT_ID      = 2006-046C
CENTER_NAME    = EARTH
REF_FRAME      = TEME
TIME_SYSTEM    = UTC
MEAN_ELEMENT_THEORY = SGP/SGP4

EPOCH          = 2025-11-26T03:11:33.506016
MEAN_MOTION    = 15.15627162
ECCENTRICITY   = .0032648
INCLINATION    = 97.5755
RA_OF_ASC_NODE = 10.3168
ARG_OF_PERICENTER = 266.0858
MEAN_ANOMALY   = 93.6642

EPHEMERIS_TYPE = 0
CLASSIFICATION_TYPE = U
NORAD_CAT_ID   = 29507
ELEMENT_SET_NO = 999
REV_AT_EPOCH   = 4435
BSTAR          = .35925E-3
MEAN_MOTION_DOT = .6851E-4
MEAN_MOTION_DDOT = 0

CCSDS_OMM_VERS = 2.0
CREATION_DATE  = 
ORIGINATOR     = 

OBJECT_NAME    = CZ-2C R/B
OBJECT_ID      = 2007-010B
CENTER_NAME    = EARTH
REF_FRAME      = TEME
TIME_SYSTEM    = UTC
MEAN_ELEMENT_THEORY = SGP/SGP4

EPOCH          = 2025-11-26T03:53:41.517312
MEAN_MOTION    = 14.20199460
ECCENTRICITY   = .0058148
INCLINATION    = 98.3969
RA_OF_ASC_NODE = 83.6481
ARG_OF_PERICENTER = 234.5431
MEAN_ANOMALY   = 125.0311

EPHEMERIS_TYPE = 0
CLASSIFICATION_TYPE = U
NORAD_CAT_ID   = 31114
ELEMENT_SET_NO = 999
REV_AT_EPOCH   = 96502
BSTAR          = .114E-3
MEAN_MOTION_DOT = .206E-5
MEAN_MOTION_DDOT = 0

CCSDS_OMM_VERS = 2.0
CREATION_DATE  = 
ORIGINATOR     = 

OBJECT_NAME    = COSMO-SKYMED 1
OBJECT_ID      = 2007-023A
CENTER_NAME    = EARTH
REF_FRAME      = TEME
TIME_SYSTEM    = UTC
MEAN_ELEMENT_THEORY = SGP/SGP4

EPOCH          = 2025-11-26T04:43:19.100640
MEAN_MOTION    = 14.95583186
ECCENTRICITY   = .0001422
INCLINATION    = 97.8844
RA_OF_ASC_NODE = 155.4892
ARG_OF_PERICENTER = 90.9535
MEAN_ANOMALY   = 269.1849

EPHEMERIS_TYPE = 0
CLASSIFICATION_TYPE = U
NORAD_CAT_ID   = 31598
ELEMENT_SET_NO = 999
REV_AT_EPOCH   = 99942
BSTAR          = .47513E-3
MEAN_MOTION_DOT = .5215E-4
MEAN_MOTION_DDOT = 0

CCSDS_OMM_VERS = 2.0
CREATION_DATE  = 
ORIGINATOR     = 

OBJECT_NAME    = COSMOS 2428
OBJECT_ID      = 2007-029A
CENTER_NAME    = EARTH
REF_FRAME      = TEME
TIME_SYSTEM    = UTC
MEAN_ELEMENT_THEORY = SGP/SGP4

EPOCH          = 2025-11-25T16:13:31.528704
MEAN_MOTION    = 14.12886672
ECCENTRICITY   = .00027474
INCLINATION    = 70.9372
RA_OF_ASC_NODE = 61.7047
ARG_OF_PERICENTER = 51.3347
MEAN_ANOMALY   = 308.8020

EPHEMERIS_TYPE = 0
CLASSIFICATION_TYPE = U
NORAD_CAT_ID   = 31792
ELEMENT_SET_NO = 999
REV_AT_EPOCH   = 94940
BSTAR          = -.25182621E-4
MEAN_MOTION_DOT = -.95E-6
MEAN_MOTION_DDOT = 0

CCSDS_OMM_VERS = 2.0
CREATION_DATE  = 
ORIGINATOR     = 

OBJECT_NAME    = SL-16 R/B
OBJECT_ID      = 2007-029B
CENTER_NAME    = EARTH
REF_FRAME      = TEME
TIME_SYSTEM    = UTC
MEAN_ELEMENT_THEORY = SGP/SGP4

EPOCH          = 2025-11-26T04:46:32.742048
MEAN_MOTION    = 14.14817093
ECCENTRICITY   = .00024
INCLINATION    = 70.9779
RA_OF_ASC_NODE = 29.9273
ARG_OF_PERICENTER = 265.7320
MEAN_ANOMALY   = 157.4128

EPHEMERIS_TYPE = 0
CLASSIFICATION_TYPE = U
NORAD_CAT_ID   = 31793
ELEMENT_SET_NO = 999
REV_AT_EPOCH   = 95073
BSTAR          = .14311E-4
MEAN_MOTION_DOT = -.2E-6
MEAN_MOTION_DDOT = 0

CCSDS_OMM_VERS = 2.0
CREATION_DATE  = 
ORIGINATOR     = 

OBJECT_NAME    = KORONAS-FOTON
OBJECT_ID      = 2009-003A
CENTER_NAME    = EARTH
REF_FRAME      = TEME
TIME_SYSTEM    = UTC
MEAN_ELEMENT_THEORY = SGP/SGP4

EPOCH          = 2025-11-26T04:40:53.970240
MEAN_MOTION    = 15.40663861
ECCENTRICITY   = .0012079
INCLINATION    = 82.4323
RA_OF_ASC_NODE = 23.2409
ARG_OF_PERICENTER = 162.9621
MEAN_ANOMALY   = 197.2033

EPHEMERIS_TYPE = 0
CLASSIFICATION_TYPE = U
NORAD_CAT_ID   = 33504
ELEMENT_SET_NO = 999
REV_AT_EPOCH   = 92979
BSTAR          = .35658E-3
MEAN_MOTION_DOT = .14617E-3
MEAN_MOTION_DDOT = 0

CCSDS_OMM_VERS = 2.0
CREATION_DATE  = 
ORIGINATOR     = 

OBJECT_NAME    = CZ-2C R/B
OBJECT_ID      = 2011-030B
CENTER_NAME    = EARTH
REF_FRAME      = TEME
TIME_SYSTEM    = UTC
MEAN_ELEMENT_THEORY = SGP/SGP4

EPOCH          = 2025-11-26T03:57:12.875040
MEAN_MOTION    = 14.80814923
ECCENTRICITY   = .0052252
INCLINATION    = 97.8393
RA_OF_ASC_NODE = 284.6414
ARG_OF_PERICENTER = 328.8677
MEAN_ANOMALY   = 41.3298

EPHEMERIS_TYPE = 0
CLASSIFICATION_TYPE = U
NORAD_CAT_ID   = 37731
ELEMENT_SET_NO = 999
REV_AT_EPOCH   = 77477
BSTAR          = .28427E-3
MEAN_MOTION_DOT = .2189E-4
MEAN_MOTION_DDOT = 0

CCSDS_OMM_VERS = 2.0
CREATION_DATE  = 
ORIGINATOR     = 

OBJECT_NAME    = H-2A R/B
OBJECT_ID      = 2012-025E
CENTER_NAME    = EARTH
REF_FRAME      = TEME
TIME_SYSTEM    = UTC
MEAN_ELEMENT_THEORY = SGP/SGP4

EPOCH          = 2025-11-25T21:35:58.354944
MEAN_MOTION    = 14.94281972
ECCENTRICITY   = .00437582
INCLINATION    = 98.4580
RA_OF_ASC_NODE = 283.8361
ARG_OF_PERICENTER = 293.2926
MEAN_ANOMALY   = 66.3690

EPHEMERIS_TYPE = 0
CLASSIFICATION_TYPE = U
NORAD_CAT_ID   = 38341
ELEMENT_SET_NO = 999
REV_AT_EPOCH   = 73271
BSTAR          = .46440217E-3
MEAN_MOTION_DOT = .5013E-4
MEAN_MOTION_DDOT = 0

