CZ-2D R/B               
1 28738U 05024B   25330.02906788  .00032054  00000+0  53127-3 0  9996
2 28738  97.3645 337.0528 0007788  55.2390 304.9595 15.52062309123662
ALOS (DAICHI)           
1 28931U 06002A   25330.14867113  .00001948  00000+0  33747-3 0  9993
2 28931  98.1071 281.7561 0000710  83.3105 276.8181 14.69410348 58274
H-2A R/B                
1 28932U 06002B   25330.13367596  .00011484  00000+0  61213-3 0  9998
2 28932  98.2309 103.5334 0054470 232.9300 126.6942 15.14077735 78752
RESURS-DK 1             
1 29228U 06021A   25329.96144443  .00003835  00000+0  22880-3 0  9999
2 29228  69.9316 145.1923 0007492 271.1996  88.8311 15.12015762 71840
CZ-4B R/B               
1 29507U 06046C   25330.13302669  .00006851  00000+0  35925-3 0  9998
2 29507  97.5755  10.3168 0032648 266.0858  93.6642 15.15627162 44352
CZ-2C R/B               
1 31114U 07010B   25330.16228608  .00000206  00000+0  11400-3 0  9990
2 31114  98.3969  83.6481 0058148 234.5431 125.0311 14.20199460965025
COSMO-SKYMED 1          
1 31598U 07023A   25330.19674885  .00005215  00000+0  47513-3 0  9994
2 31598  97.8844 155.4892 0001422  90.9535 269.1849 14.95583186999424
COSMOS 2428             
1 31792U 07029A   25329.67605935 -.00000095  00000+0 -25183-4 0  9990
2 31792  70.9372  61.7047 0002747  51.3347 308.8020 14.12886672949402
SL-16 R/B               
1 31793U 07029B   25330.19899007 -.00000020  00000+0  14311-4 0  9993
2 31793  70.9779  29.9273 0002400 265.7320 157.4128 14.14817093950737
KORONAS-FOTON           
1 33504U 09003A   25330.19506910  .00014617  00000+0  35658-3 0  9999
2 33504  82.4323  23.2409 0012079 162.9621 197.2033 15.40663861929796
CZ-2C R/B               
1 37731U 11030B   25330.16473235  .00002189  00000+0  28427-3 0  9995
2 37731  97.8393 284.6414 0052252 328.8677  41.3298 14.80814923774777
H-2A R/B                
1 38341U 12025E   25329.89998095  .00005013  00000+0  46440-3 0  9996
2 38341  98.4580 283.8361 0043758 293.2926  66.3690 14.94281972732713
